     2.11           N: GPS NAV DATA                         RINEX VERSION / TYPE
teqc  2019Feb25     KASI/KOREA          20250415 00:17:31UTCPGM / RUN BY / DATE
Linux 2.4.20-8|x86|gcc -static|Linux 32|=+                  COMMENT
    3.0734D-08  1.4901D-08 -1.7881D-07 -5.9605D-08          ION ALPHA
    1.3312D+05  3.2768D+04 -2.6214D+05  3.2768D+05          ION BETA
   -2.793967723846D-09-1.065814103640D-14   319488     2362 DELTA-UTC: A0,A1,T,W
                                                            END OF HEADER
 9 25  4 15  0  0  0.0 6.310879252851D-04 1.136868377216D-11 0.000000000000D+00
    1.800000000000D+01 2.065625000000D+01 4.863059708814D-09 8.579062848175D-01
    8.903443813324D-07 3.009201958776D-03 5.554407835007D-06 5.153722106934D+03
    1.728000000000D+05-1.862645149231D-08-1.672517185774D+00-4.656612873077D-08
    9.608968264898D-01 2.717187500000D+02 2.017138566375D+00-8.176769166685D-09
    2.360812623036D-10 1.000000000000D+00 2.362000000000D+03 0.000000000000D+00
    2.000000000000D+00 0.000000000000D+00 4.656612873077D-10 1.800000000000D+01
    1.656180000000D+05 4.000000000000D+00
27 25  4 15  0  0  0.0-2.776319161057D-05 7.958078640513D-13 0.000000000000D+00
    1.060000000000D+02 6.325000000000D+01 4.837701509686D-09 3.782628085986D-01
    3.268942236900D-06 1.351084001362D-02 2.218410372734D-06 5.153690494537D+03
    1.728000000000D+05-9.126961231232D-08 1.483763694908D+00 2.291053533554D-07
    9.570188106006D-01 3.367500000000D+02 8.401216614108D-01-8.611787286936D-09
    1.767930784271D-10 1.000000000000D+00 2.362000000000D+03 0.000000000000D+00
    2.000000000000D+00 0.000000000000D+00 2.328306436539D-09 1.060000000000D+02
    1.656180000000D+05 4.000000000000D+00
 2 25  4 14 23 59 44.0-1.942920498550D-04 9.436007530894D-12 0.000000000000D+00
    1.900000000000D+01-1.003750000000D+02 4.692695469602D-09 7.207475022551D-01
   -5.515292286873D-06 1.641875377391D-02 4.615634679794D-06 5.153717065811D+03
    1.727840000000D+05-4.097819328308D-08 2.456931334881D+00-3.352761268616D-07
    9.658952006350D-01 2.965312500000D+02-1.003418152599D+00-8.464281142713D-09
   -2.164375869228D-10 1.000000000000D+00 2.362000000000D+03 0.000000000000D+00
    2.000000000000D+00 0.000000000000D+00-1.769512891769D-08 1.900000000000D+01
    1.701720000000D+05 4.000000000000D+00
 4 25  4 15  0  0  0.0 5.540200509131D-04 5.002220859751D-12 0.000000000000D+00
    1.470000000000D+02 1.490625000000D+01 4.758769650429D-09-4.026398938535D-02
    6.016343832016D-07 3.258500830270D-03 5.159527063370D-06 5.153628433228D+03
    1.728000000000D+05 9.313225746155D-09-1.610539733856D+00 2.980232238770D-08
    9.670020093437D-01 2.808125000000D+02-2.898350562540D+00-8.158911279975D-09
    1.339341503235D-10 1.000000000000D+00 2.362000000000D+03 0.000000000000D+00
    2.000000000000D+00 0.000000000000D+00-4.656612873077D-09 1.470000000000D+02
    1.656180000000D+05 4.000000000000D+00
16 25  4 15  0  0  0.0-6.983987987041D-06 8.867573342286D-12 0.000000000000D+00
    7.300000000000D+01 8.865625000000D+01 4.224818837805D-09 1.315008864723D+00
    4.677101969719D-06 1.447788719088D-02 1.013092696667D-05 5.153730579376D+03
    1.728000000000D+05-2.160668373108D-07 5.342215923594D-01 3.539025783539D-08
    9.601937363575D-01 1.878125000000D+02 8.830072175492D-01-8.020334079107D-09
   -4.393040130612D-11 1.000000000000D+00 2.362000000000D+03 0.000000000000D+00
    2.000000000000D+00 0.000000000000D+00-1.024454832077D-08 7.300000000000D+01
    1.656180000000D+05 4.000000000000D+00
26 25  4 15  0  0  0.0-1.863599754870D-04-2.034994395217D-11 0.000000000000D+00
    1.200000000000D+02 7.071875000000D+01 4.825558146723D-09 2.068068649052D+00
    3.613531589508D-06 9.889713488519D-03 1.057237386703D-05 5.153819814682D+03
    1.728000000000D+05-1.881271600723D-07 3.581426891434D-01-8.381903171539D-08
    9.298938443940D-01 1.604375000000D+02 6.234302505209D-01-8.112480774530D-09
   -8.071764792832D-11 1.000000000000D+00 2.362000000000D+03 0.000000000000D+00
    2.800000000000D+00 0.000000000000D+00 6.519258022308D-09 1.200000000000D+02
    1.656180000000D+05 4.000000000000D+00
 7 25  4 15  0  0  0.0-2.109864726663D-05-2.273736754432D-12 0.000000000000D+00
    1.290000000000D+02-3.384375000000D+01 4.644836333220D-09-2.505435106480D+00
   -1.881271600723D-06 1.952711713966D-02 7.843598723412D-06 5.153728271484D+03
    1.728000000000D+05 2.440065145493D-07-5.992396756178D-01-8.009374141693D-08
    9.505810274696D-01 2.187812500000D+02-2.057786994540D+00-7.729250525737D-09
   -4.521616914922D-10 1.000000000000D+00 2.362000000000D+03 0.000000000000D+00
    2.800000000000D+00 0.000000000000D+00-1.071020960808D-08 1.290000000000D+02
    1.681680000000D+05 4.000000000000D+00
 8 25  4 15  0  0  0.0 5.087540484965D-04 4.433786671143D-12 0.000000000000D+00
    7.600000000000D+01 6.506250000000D+01 5.034495421228D-09 2.265045015188D-01
    3.527849912643D-06 1.057500333991D-02 2.011656761169D-06 5.153776866913D+03
    1.728000000000D+05 1.657754182816D-07 1.454499683533D+00 1.545995473862D-07
    9.479613142338D-01 3.339687500000D+02 4.494143982679D-01-8.668218208939D-09
    2.678683006471D-10 1.000000000000D+00 2.362000000000D+03 0.000000000000D+00
    2.000000000000D+00 0.000000000000D+00 4.656612873077D-09 7.600000000000D+01
    1.656180000000D+05 4.000000000000D+00
27 25  4 15  2  0  0.0-2.775806933641D-05 7.958078640513D-13 0.000000000000D+00
    1.080000000000D+02 6.650000000000D+01 4.780556272215D-09 1.428400382358D+00
    3.352761268616D-06 1.351170404814D-02 2.576038241386D-06 5.153692213058D+03
    1.800000000000D+05-2.253800630569D-07 1.483701888082D+00 1.061707735062D-07
    9.570198024590D-01 3.287187500000D+02 8.401556698674D-01-8.566428254693D-09
    1.467918287546D-10 1.000000000000D+00 2.362000000000D+03 0.000000000000D+00
    2.000000000000D+00 0.000000000000D+00 2.328306436539D-09 1.080000000000D+02
    1.728180000000D+05 4.000000000000D+00
 8 25  4 15  2  0  0.0 5.087852478027D-04 4.320099833421D-12 0.000000000000D+00
    7.700000000000D+01 7.190625000000D+01 4.909490214259D-09 1.276507472186D+00
    3.796070814133D-06 1.057617890183D-02 2.518296241760D-06 5.153780128479D+03
    1.800000000000D+05-7.078051567078D-08 1.454438690089D+00 1.229345798492D-07
    9.479628078731D-01 3.240000000000D+02 4.495309913759D-01-8.564285308288D-09
    1.035757429169D-10 1.000000000000D+00 2.362000000000D+03 0.000000000000D+00
    2.000000000000D+00 0.000000000000D+00 4.656612873077D-09 7.700000000000D+01
    1.728180000000D+05 4.000000000000D+00
 9 25  4 15  2  0  0.0 6.311694160104D-04 1.136868377216D-11 0.000000000000D+00
    2.800000000000D+01 2.209375000000D+01 4.899846955436D-09 1.907992283400D+00
    1.089647412300D-06 3.009181586094D-03 5.317851901054D-06 5.153722478867D+03
    1.800000000000D+05 1.862645149231D-08-1.672575917546D+00-4.470348358154D-08
    9.608986390453D-01 2.725000000000D+02 2.017206415053D+00-8.150696652089D-09
    2.360812623036D-10 1.000000000000D+00 2.362000000000D+03 0.000000000000D+00
    2.000000000000D+00 0.000000000000D+00 4.656612873077D-10 2.800000000000D+01
    1.728180000000D+05 4.000000000000D+00
 2 25  4 15  1 59 44.0-1.942240633070D-04 9.436007530894D-12 0.000000000000D+00
    2.000000000000D+01-9.337500000000D+01 4.433756112310D-09 1.770774792472D+00
   -4.976987838745D-06 1.641949953046D-02 3.669410943985D-06 5.153721267700D+03
    1.799840000000D+05 2.980232238770D-07 2.456872979078D+00 1.862645149231D-08
    9.658953688706D-01 3.102500000000D+02-1.003292657635D+00-7.989261356232D-09
   -3.189418566371D-10 1.000000000000D+00 2.362000000000D+03 0.000000000000D+00
    2.000000000000D+00 0.000000000000D+00-1.769512891769D-08 2.000000000000D+01
    1.728180000000D+05 4.000000000000D+00
 4 25  4 15  2  0  0.0 5.540554411709D-04 5.002220859751D-12 0.000000000000D+00
    1.480000000000D+02 1.931250000000D+01 4.845201822104D-09 1.009853235184D+00
    1.152977347374D-06 3.259043558501D-03 5.135312676430D-06 5.153629613876D+03
    1.800000000000D+05 4.470348358154D-08-1.610598826969D+00-7.450580596924D-09
    9.670029295192D-01 2.810937500000D+02-2.898257422935D+00-8.198555788471D-09
    1.646497154644D-10 1.000000000000D+00 2.362000000000D+03 0.000000000000D+00
    2.000000000000D+00 0.000000000000D+00-4.656612873077D-09 1.480000000000D+02
    1.728180000000D+05 4.000000000000D+00
26 25  4 15  2  0  0.0-1.865066587925D-04-2.034994395217D-11 0.000000000000D+00
    1.210000000000D+02 6.915625000000D+01 4.768412909252D-09 3.118208180195D+00
    3.524124622345D-06 9.890526765957D-03 1.083314418793D-05 5.153818080902D+03
    1.800000000000D+05-1.862645149231D-09 3.580849814139D-01-5.774199962616D-08
    9.298939921487D-01 1.539062500000D+02 6.233847493799D-01-7.944973797192D-09
   -8.643217167545D-11 1.000000000000D+00 2.362000000000D+03 0.000000000000D+00
    2.800000000000D+00 0.000000000000D+00 6.519258022308D-09 1.210000000000D+02
    1.728180000000D+05 4.000000000000D+00
16 25  4 15  2  0  0.0-6.920658051968D-06 8.867573342286D-12 0.000000000000D+00
    8.300000000000D+01 8.978125000000D+01 4.145886978548D-09 2.365196404450D+00
    4.483386874199D-06 1.447834575083D-02 1.021660864353D-05 5.153729206085D+03
    1.800000000000D+05-1.676380634308D-08 5.341641333260D-01-2.700835466385D-07
    9.601951700173D-01 1.813750000000D+02 8.829639970975D-01-7.695677698723D-09
    5.321650239522D-11 1.000000000000D+00 2.362000000000D+03 0.000000000000D+00
    2.000000000000D+00 0.000000000000D+00-1.024454832077D-08 8.300000000000D+01
    1.728180000000D+05 4.000000000000D+00
 7 25  4 15  2  0  0.0-2.111447975039D-05-2.273736754432D-12 0.000000000000D+00
    1.330000000000D+02-2.409375000000D+01 4.787342269164D-09-1.455351922552D+00
   -1.201406121254D-06 1.952796184923D-02 7.513910531998D-06 5.153725410461D+03
    1.800000000000D+05 4.470348358154D-07-5.992946579309D-01 2.495944499969D-07
    9.505766314008D-01 2.252500000000D+02-2.057720908678D+00-7.968546207649D-09
   -6.146684605515D-10 1.000000000000D+00 2.362000000000D+03 0.000000000000D+00
    2.800000000000D+00 0.000000000000D+00-1.071020960808D-08 1.330000000000D+02
    1.728180000000D+05 4.000000000000D+00
30 25  4 15  1 59 44.0-1.695901155472D-04 9.436007530894D-12 0.000000000000D+00
    3.000000000000D+00-2.978125000000D+01 5.115570226891D-09-1.653285819773D+00
   -1.665204763412D-06 7.616691756994D-03 7.439404726028D-06 5.153698801041D+03
    1.799840000000D+05 1.192092895508D-07-6.035011296502D-01-6.891787052155D-08
    9.357599206025D-01 2.204375000000D+02-2.390438017236D+00-8.155696860368D-09
   -5.485942797252D-10 1.000000000000D+00 2.362000000000D+03 0.000000000000D+00
    2.000000000000D+00 0.000000000000D+00 3.725290298462D-09 3.000000000000D+00
    1.733160000000D+05 4.000000000000D+00
